COSMOS 2361 [-]         
1 25590U 98076A   22227.32576167  .00000057  00000+0  44895-4 0  9998
2 25590  82.9369 162.6490 0032700  46.5052  65.6809 13.73025255184316
COSMOS 2378 [-]         
1 26818U 01023A   22227.74981243  .00000027  00000+0  12545-4 0  9993
2 26818  82.9297 180.2615 0033104 352.4595   7.6061 13.73973077 62455
COSMOS 2389 [-]         
1 27436U 02026A   22227.73072010  .00000053  00000+0  39472-4 0  9993
2 27436  82.9516 126.1466 0045584 208.9496 164.2582 13.74979934 14510
COSMOS 2398 [-]         
1 27818U 03023A   22227.69557610  .00000054  00000+0  42576-4 0  9994
2 27818  82.9470  87.9567 0030002 246.9606 112.8394 13.72215062961517
COSMOS 2407 [+]         
1 28380U 04028A   22227.76549636  .00000044  00000+0  29614-4 0  9999
2 28380  82.9596  32.5078 0038407 210.1035 149.7920 13.76117935907316
COSMOS 2414 [+]         
1 28521U 05002A   22227.80830145 -.00000147  00000+0 -13626-3 0  9993
2 28521  82.9503  23.3517 0040783   6.9028 353.2651 13.87661609889787
COSMOS 2429 [-]         
1 32052U 07038A   22227.31722613  .00000058  00000+0  44239-4 0  9998
2 32052  82.9832 158.9501 0038072 187.8105 172.2464 13.74966222748990
COSMOS 2454 [-]         
1 35635U 09039A   22227.84159693  .00000041  00000+0  20505-4 0  9993
2 35635  82.9576   9.5658 0018440 311.9497  48.0099 13.89691886662941
COSMOS 2463 [+]         
1 36519U 10017A   22227.69648671  .00000036  00000+0  22693-4 0  9999
2 36519  82.9609 199.2879 0037535  59.7122 113.5207 13.71477803615815
